[{"CCSDS_OMM_VERS":"2.0","COMMENT":"GENERATED VIA SPACE-TRACK.ORG API","CREATION_DATE":"2020-12-18T22:46:09","ORIGINATOR":"18 SPCS","OBJECT_NAME":"TBA - TO BE ASSIGNED","OBJECT_ID":"2020-100Z","CENTER_NAME":"EARTH","REF_FRAME":"TEME","TIME_SYSTEM":"UTC","MEAN_ELEMENT_THEORY":"SGP4","EPOCH":"2020-12-18T15:13:56.000352","MEAN_MOTION":"15.37379694","ECCENTRICITY":"0.00029000","INCLINATION":"87.4700","RA_OF_ASC_NODE":"39.3900","ARG_OF_PERICENTER":"29.9100","MEAN_ANOMALY":"321.7900","EPHEMERIS_TYPE":"0","CLASSIFICATION_TYPE":"U","NORAD_CAT_ID":"47281","ELEMENT_SET_NO":"999","REV_AT_EPOCH":"1","BSTAR":"0.00000000000000","MEAN_MOTION_DOT":"0.00000044","MEAN_MOTION_DDOT":"0.0000000000000","SEMIMAJOR_AXIS":"6831.998","PERIOD":"93.665","APOAPSIS":"455.844","PERIAPSIS":"451.881","OBJECT_TYPE":"TBA","RCS_SIZE":null,"COUNTRY_CODE":null,"LAUNCH_DATE":null,"SITE":null,"DECAY_DATE":null,"FILE":"2905400","GP_ID":"168019668","TLE_LINE0":"0 TBA - TO BE ASSIGNED","TLE_LINE1":"1 47281U 20100Z   20353.63467593  .00000044  00000-0  00000+0 0  9998","TLE_LINE2":"2 47281  87.4700  39.3900 0002900  29.9100 321.7900 15.37379694    13"},{"CCSDS_OMM_VERS":"2.0","COMMENT":"GENERATED VIA SPACE-TRACK.ORG API","CREATION_DATE":"2020-12-19T06:36:09","ORIGINATOR":"18 SPCS","OBJECT_NAME":"TBA - TO BE ASSIGNED","OBJECT_ID":"2020-100Z","CENTER_NAME":"EARTH","REF_FRAME":"TEME","TIME_SYSTEM":"UTC","MEAN_ELEMENT_THEORY":"SGP4","EPOCH":"2020-12-19T04:00:01.999584","MEAN_MOTION":"15.42160987","ECCENTRICITY":"0.00087350","INCLINATION":"87.3971","RA_OF_ASC_NODE":"39.4632","ARG_OF_PERICENTER":"259.6699","MEAN_ANOMALY":"138.0629","EPHEMERIS_TYPE":"0","CLASSIFICATION_TYPE":"U","NORAD_CAT_ID":"47281","ELEMENT_SET_NO":"999","REV_AT_EPOCH":"9","BSTAR":"-0.00034820000000","MEAN_MOTION_DOT":"-0.00014824","MEAN_MOTION_DDOT":"0.0000000000000","SEMIMAJOR_AXIS":"6817.869","PERIOD":"93.375","APOAPSIS":"445.690","PERIAPSIS":"433.779","OBJECT_TYPE":"TBA","RCS_SIZE":null,"COUNTRY_CODE":null,"LAUNCH_DATE":null,"SITE":null,"DECAY_DATE":null,"FILE":"2905580","GP_ID":"168045381","TLE_LINE0":"0 TBA - TO BE ASSIGNED","TLE_LINE1":"1 47281U 20100Z   20354.16668981 -.00014824  00000-0 -34820-3 0  9995","TLE_LINE2":"2 47281  87.3971  39.4632 0008735 259.6699 138.0629 15.42160987    96"},{"CCSDS_OMM_VERS":"2.0","COMMENT":"GENERATED VIA SPACE-TRACK.ORG API","CREATION_DATE":"2020-12-19T20:03:32","ORIGINATOR":"18 SPCS","OBJECT_NAME":"TBA - TO BE ASSIGNED","OBJECT_ID":"2020-100Z","CENTER_NAME":"EARTH","REF_FRAME":"TEME","TIME_SYSTEM":"UTC","MEAN_ELEMENT_THEORY":"SGP4","EPOCH":"2020-12-19T12:00:07.999776","MEAN_MOTION":"15.42109830","ECCENTRICITY":"0.00087430","INCLINATION":"87.3973","RA_OF_ASC_NODE":"39.3427","ARG_OF_PERICENTER":"258.1755","MEAN_ANOMALY":"189.2345","EPHEMERIS_TYPE":"0","CLASSIFICATION_TYPE":"U","NORAD_CAT_ID":"47281","ELEMENT_SET_NO":"999","REV_AT_EPOCH":"145","BSTAR":"0.00160850000000","MEAN_MOTION_DOT":"0.00069370","MEAN_MOTION_DDOT":"0.0000000000000","SEMIMAJOR_AXIS":"6818.020","PERIOD":"93.378","APOAPSIS":"445.846","PERIAPSIS":"433.924","OBJECT_TYPE":"TBA","RCS_SIZE":null,"COUNTRY_CODE":null,"LAUNCH_DATE":null,"SITE":null,"DECAY_DATE":null,"FILE":"2905959","GP_ID":"168075710","TLE_LINE0":"0 TBA - TO BE ASSIGNED","TLE_LINE1":"1 47281U 20100Z   20354.50009259  .00069370  00000-0  16085-2 0  9996","TLE_LINE2":"2 47281  87.3973  39.3427 0008743 258.1755 189.2345 15.42109830  1459"},{"CCSDS_OMM_VERS":"2.0","COMMENT":"GENERATED VIA SPACE-TRACK.ORG API","CREATION_DATE":"2020-12-20T02:37:23","ORIGINATOR":"18 SPCS","OBJECT_NAME":"ONEWEB-0135","OBJECT_ID":"2020-100Z","CENTER_NAME":"EARTH","REF_FRAME":"TEME","TIME_SYSTEM":"UTC","MEAN_ELEMENT_THEORY":"SGP4","EPOCH":"2020-12-19T22:00:03.000096","MEAN_MOTION":"15.42130646","ECCENTRICITY":"0.00087050","INCLINATION":"87.3976","RA_OF_ASC_NODE":"39.1951","ARG_OF_PERICENTER":"255.6576","MEAN_ANOMALY":"343.0185","EPHEMERIS_TYPE":"0","CLASSIFICATION_TYPE":"U","NORAD_CAT_ID":"47281","ELEMENT_SET_NO":"999","REV_AT_EPOCH":"151","BSTAR":"0.00053542000000","MEAN_MOTION_DOT":"0.00023002","MEAN_MOTION_DDOT":"0.0000000000000","SEMIMAJOR_AXIS":"6817.959","PERIOD":"93.377","APOAPSIS":"445.759","PERIAPSIS":"433.889","OBJECT_TYPE":"PAYLOAD","RCS_SIZE":null,"COUNTRY_CODE":"UK","LAUNCH_DATE":"2020-12-18","SITE":"VOSTO","DECAY_DATE":null,"FILE":"2906183","GP_ID":"168102073","TLE_LINE0":"0 ONEWEB-0135","TLE_LINE1":"1 47281U 20100Z   20354.91670139  .00023002  00000-0  53542-3 0  9994","TLE_LINE2":"2 47281  87.3976  39.1951 0008705 255.6576 343.0185 15.42130646  1511"},{"CCSDS_OMM_VERS":"2.0","COMMENT":"GENERATED VIA SPACE-TRACK.ORG API","CREATION_DATE":"2020-12-20T06:36:09","ORIGINATOR":"18 SPCS","OBJECT_NAME":"ONEWEB-0135","OBJECT_ID":"2020-100Z","CENTER_NAME":"EARTH","REF_FRAME":"TEME","TIME_SYSTEM":"UTC","MEAN_ELEMENT_THEORY":"SGP4","EPOCH":"2020-12-20T04:00:01.999584","MEAN_MOTION":"15.42167128","ECCENTRICITY":"0.00087660","INCLINATION":"87.3976","RA_OF_ASC_NODE":"39.1054","ARG_OF_PERICENTER":"254.2400","MEAN_ANOMALY":"291.3107","EPHEMERIS_TYPE":"0","CLASSIFICATION_TYPE":"U","NORAD_CAT_ID":"47281","ELEMENT_SET_NO":"999","REV_AT_EPOCH":"24","BSTAR":"-0.00039684000000","MEAN_MOTION_DOT":"-0.00016901","MEAN_MOTION_DDOT":"0.0000000000000","SEMIMAJOR_AXIS":"6817.851","PERIOD":"93.375","APOAPSIS":"445.693","PERIAPSIS":"433.740","OBJECT_TYPE":"PAYLOAD","RCS_SIZE":null,"COUNTRY_CODE":"UK","LAUNCH_DATE":"2020-12-18","SITE":"VOSTO","DECAY_DATE":null,"FILE":"2906234","GP_ID":"168103079","TLE_LINE0":"0 ONEWEB-0135","TLE_LINE1":"1 47281U 20100Z   20355.16668981 -.00016901  00000-0 -39684-3 0  9997","TLE_LINE2":"2 47281  87.3976  39.1054 0008766 254.2400 291.3107 15.42167128   246"},{"CCSDS_OMM_VERS":"2.0","COMMENT":"GENERATED VIA SPACE-TRACK.ORG API","CREATION_DATE":"2020-12-20T20:46:18","ORIGINATOR":"18 SPCS","OBJECT_NAME":"ONEWEB-0135","OBJECT_ID":"2020-100Z","CENTER_NAME":"EARTH","REF_FRAME":"TEME","TIME_SYSTEM":"UTC","MEAN_ELEMENT_THEORY":"SGP4","EPOCH":"2020-12-20T14:00:01.000224","MEAN_MOTION":"15.42136283","ECCENTRICITY":"0.00087570","INCLINATION":"87.3976","RA_OF_ASC_NODE":"38.9550","ARG_OF_PERICENTER":"253.0434","MEAN_ANOMALY":"84.0589","EPHEMERIS_TYPE":"0","CLASSIFICATION_TYPE":"U","NORAD_CAT_ID":"47281","ELEMENT_SET_NO":"999","REV_AT_EPOCH":"161","BSTAR":"0.00103300000000","MEAN_MOTION_DOT":"0.00044465","MEAN_MOTION_DDOT":"0.0000000000000","SEMIMAJOR_AXIS":"6817.942","PERIOD":"93.376","APOAPSIS":"445.778","PERIAPSIS":"433.837","OBJECT_TYPE":"PAYLOAD","RCS_SIZE":null,"COUNTRY_CODE":"UK","LAUNCH_DATE":"2020-12-18","SITE":"VOSTO","DECAY_DATE":null,"FILE":"2906543","GP_ID":"168131382","TLE_LINE0":"0 ONEWEB-0135","TLE_LINE1":"1 47281U 20100Z   20355.58334491  .00044465  00000-0  10330-2 0  9999","TLE_LINE2":"2 47281  87.3976  38.9550 0008757 253.0434  84.0589 15.42136283  1619"},{"CCSDS_OMM_VERS":"2.0","COMMENT":"GENERATED VIA SPACE-TRACK.ORG API","CREATION_DATE":"2020-12-21T03:33:58","ORIGINATOR":"18 SPCS","OBJECT_NAME":"ONEWEB-0135","OBJECT_ID":"2020-100Z","CENTER_NAME":"EARTH","REF_FRAME":"TEME","TIME_SYSTEM":"UTC","MEAN_ELEMENT_THEORY":"SGP4","EPOCH":"2020-12-20T22:00:01.999584","MEAN_MOTION":"15.42135570","ECCENTRICITY":"0.00087340","INCLINATION":"87.3976","RA_OF_ASC_NODE":"38.8372","ARG_OF_PERICENTER":"250.7024","MEAN_ANOMALY":"135.7575","EPHEMERIS_TYPE":"0","CLASSIFICATION_TYPE":"U","NORAD_CAT_ID":"47281","ELEMENT_SET_NO":"999","REV_AT_EPOCH":"167","BSTAR":"0.00069936000000","MEAN_MOTION_DOT":"0.00030063","MEAN_MOTION_DDOT":"0.0000000000000","SEMIMAJOR_AXIS":"6817.944","PERIOD":"93.377","APOAPSIS":"445.764","PERIAPSIS":"433.854","OBJECT_TYPE":"PAYLOAD","RCS_SIZE":null,"COUNTRY_CODE":"UK","LAUNCH_DATE":"2020-12-18","SITE":"VOSTO","DECAY_DATE":null,"FILE":"2906789","GP_ID":"168158092","TLE_LINE0":"0 ONEWEB-0135","TLE_LINE1":"1 47281U 20100Z   20355.91668981  .00030063  00000-0  69936-3 0  9996","TLE_LINE2":"2 47281  87.3976  38.8372 0008734 250.7024 135.7575 15.42135570  1677"},{"CCSDS_OMM_VERS":"2.0","COMMENT":"GENERATED VIA SPACE-TRACK.ORG API","CREATION_DATE":"2020-12-21T06:46:09","ORIGINATOR":"18 SPCS","OBJECT_NAME":"ONEWEB-0135","OBJECT_ID":"2020-100Z","CENTER_NAME":"EARTH","REF_FRAME":"TEME","TIME_SYSTEM":"UTC","MEAN_ELEMENT_THEORY":"SGP4","EPOCH":"2020-12-21T04:00:00.999936","MEAN_MOTION":"15.42179827","ECCENTRICITY":"0.00088760","INCLINATION":"87.3976","RA_OF_ASC_NODE":"38.7475","ARG_OF_PERICENTER":"249.7728","MEAN_ANOMALY":"83.5673","EPHEMERIS_TYPE":"0","CLASSIFICATION_TYPE":"U","NORAD_CAT_ID":"47281","ELEMENT_SET_NO":"999","REV_AT_EPOCH":"39","BSTAR":"-0.00067128000000","MEAN_MOTION_DOT":"-0.00028592","MEAN_MOTION_DDOT":"0.0000000000000","SEMIMAJOR_AXIS":"6817.814","PERIOD":"93.374","APOAPSIS":"445.730","PERIAPSIS":"433.627","OBJECT_TYPE":"PAYLOAD","RCS_SIZE":null,"COUNTRY_CODE":"UK","LAUNCH_DATE":"2020-12-18","SITE":"VOSTO","DECAY_DATE":null,"FILE":"2906842","GP_ID":"168159232","TLE_LINE0":"0 ONEWEB-0135","TLE_LINE1":"1 47281U 20100Z   20356.16667824 -.00028592  00000-0 -67128-3 0  9996","TLE_LINE2":"2 47281  87.3976  38.7475 0008876 249.7728  83.5673 15.42179827   396"}]